FLOCK 4BE-3             
1 60561U 24149CX  26189.75755137  .00013087  00000+0  30637-3 0  9994
2 60561  97.3687 273.8856 0004443 188.5262 171.5911 15.42239472105668
FLOCK 4BE-19            
1 60563U 24149CZ  26189.76043748  .00018083  00000+0  37934-3 0  9993
2 60563  97.3740 275.5359 0005363 194.5146 165.5950 15.45427253105752
FLOCK 4G-8              
1 62613U 25009E   26189.73388509  .00006995  00000+0  24229-3 0  9993
2 62613  97.4002 271.6529 0003383 216.9456 143.1552 15.30160464 82218
FLOCK 4G-13             
1 62621U 25009N   26190.02397637  .00058885  00000+0  11145-2 0  9995
2 62621  97.3944 273.7316 0006039 212.9589 147.1286 15.48170116 82371
FLOCK 4G-9              
1 62622U 25009P   26189.81477270  .00005746  00000+0  21029-3 0  9994
2 62622  97.3954 270.6089 0003486 231.9391 128.1535 15.28435310 82162
FLOCK 4G-7              
1 62624U 25009R   26190.17420875  .00007875  00000+0  27584-3 0  9993
2 62624  97.3940 271.3713 0001904 203.3931 156.7223 15.29754282 82262
FLOCK 4G-12             
1 62625U 25009S   26190.16915498  .00008425  00000+0  29545-3 0  9994
2 62625  97.4018 271.9106 0003545 211.0444 149.0588 15.29689194 82268
FLOCK 4G-11             
1 62629U 25009W   26190.02362636  .00007598  00000+0  26591-3 0  9991
2 62629  97.3919 271.3310 0002001 206.9582 153.1555 15.29794351 82255
FLOCK 4G-26             
1 62633U 25009AA  26190.16875689  .00009533  00000+0  33095-3 0  9996
2 62633  97.4013 272.0687 0003041 198.1579 161.9553 15.29981859 82272
FLOCK 4G-28             
1 62634U 25009AB  26190.02455333  .00005830  00000+0  17296-3 0  9993
2 62634  97.4020 274.6606 0001573 175.0785 185.0474 15.35208382 82438
FLOCK 4G-20             
1 62636U 25009AD  26190.21452281  .00116265  00000+0  14618-2 0  9994
2 62636  97.3846 275.3991 0005962 218.5585 141.5247 15.59265253 82540
FLOCK 4G-24             
1 62637U 25009AE  26190.18121234  .00007324  00000+0  25255-3 0  9997
2 62637  97.4020 272.3827 0003100 183.4224 176.6996 15.30289198 82298
FLOCK 4G-3              
1 62639U 25009AG  26189.77998570  .00007693  00000+0  26929-3 0  9995
2 62639  97.4022 271.6959 0002562 189.3147 170.8047 15.29783248 82207
FLOCK 4G-27             
1 62641U 25009AJ  26189.79930082  .00007204  00000+0  25278-3 0  9998
2 62641  97.3929 271.0714 0001913 188.3351 171.7858 15.29727342 82206
FLOCK 4G-29             
1 62642U 25009AK  26190.17735030  .00006602  00000+0  23142-3 0  9998
2 62642  97.4018 272.0516 0002859 184.5975 175.5240 15.29792433 82264
FLOCK 4G-22             
1 62645U 25009AN  26189.80295019  .00006898  00000+0  24243-3 0  9997
2 62645  97.4003 271.7150 0002312 179.0266 181.0979 15.29689068 82223
