{"fetched_at":"2026-07-10T07:58:43.188Z","source":"https://celestrak.org/NORAD/elements/gp.php?GROUP=planet&FORMAT=JSON","constellation":"superdove","records":[{"OBJECT_NAME":"FLOCK 4BE-3","OBJECT_ID":"2024-149CX","EPOCH":"2026-07-08T18:10:52.438368","CLASSIFICATION_TYPE":"U","MEAN_MOTION":15.42239472,"ECCENTRICITY":0.00044438,"INCLINATION":97.3687,"RA_OF_ASC_NODE":273.8856,"ARG_OF_PERICENTER":188.5262,"MEAN_ANOMALY":171.5911,"EPHEMERIS_TYPE":0,"NORAD_CAT_ID":60561,"ELEMENT_SET_NO":999,"REV_AT_EPOCH":10566,"BSTAR":0.00030637404,"MEAN_MOTION_DOT":0.00013087,"MEAN_MOTION_DDOT":0},{"OBJECT_NAME":"FLOCK 4BE-19","OBJECT_ID":"2024-149CZ","EPOCH":"2026-07-08T18:15:01.798272","CLASSIFICATION_TYPE":"U","MEAN_MOTION":15.45427253,"ECCENTRICITY":0.00053632,"INCLINATION":97.374,"RA_OF_ASC_NODE":275.5359,"ARG_OF_PERICENTER":194.5146,"MEAN_ANOMALY":165.595,"EPHEMERIS_TYPE":0,"NORAD_CAT_ID":60563,"ELEMENT_SET_NO":999,"REV_AT_EPOCH":10575,"BSTAR":0.00037934203,"MEAN_MOTION_DOT":0.00018083,"MEAN_MOTION_DDOT":0},{"OBJECT_NAME":"FLOCK 4G-8","OBJECT_ID":"2025-009E","EPOCH":"2026-07-08T17:36:47.671776","CLASSIFICATION_TYPE":"U","MEAN_MOTION":15.30160464,"ECCENTRICITY":0.00033838,"INCLINATION":97.4002,"RA_OF_ASC_NODE":271.6529,"ARG_OF_PERICENTER":216.9456,"MEAN_ANOMALY":143.1552,"EPHEMERIS_TYPE":0,"NORAD_CAT_ID":62613,"ELEMENT_SET_NO":999,"REV_AT_EPOCH":8221,"BSTAR":0.00024229017,"MEAN_MOTION_DOT":0.00006995,"MEAN_MOTION_DDOT":0},{"OBJECT_NAME":"FLOCK 4G-13","OBJECT_ID":"2025-009N","EPOCH":"2026-07-09T00:34:31.558368","CLASSIFICATION_TYPE":"U","MEAN_MOTION":15.48170116,"ECCENTRICITY":0.00060392,"INCLINATION":97.3944,"RA_OF_ASC_NODE":273.7316,"ARG_OF_PERICENTER":212.9589,"MEAN_ANOMALY":147.1286,"EPHEMERIS_TYPE":0,"NORAD_CAT_ID":62621,"ELEMENT_SET_NO":999,"REV_AT_EPOCH":8237,"BSTAR":0.0011144591,"MEAN_MOTION_DOT":0.00058885,"MEAN_MOTION_DDOT":0},{"OBJECT_NAME":"FLOCK 4G-9","OBJECT_ID":"2025-009P","EPOCH":"2026-07-08T19:33:16.361280","CLASSIFICATION_TYPE":"U","MEAN_MOTION":15.2843531,"ECCENTRICITY":0.00034868,"INCLINATION":97.3954,"RA_OF_ASC_NODE":270.6089,"ARG_OF_PERICENTER":231.9391,"MEAN_ANOMALY":128.1535,"EPHEMERIS_TYPE":0,"NORAD_CAT_ID":62622,"ELEMENT_SET_NO":999,"REV_AT_EPOCH":8216,"BSTAR":0.0002102859,"MEAN_MOTION_DOT":0.00005746,"MEAN_MOTION_DDOT":0},{"OBJECT_NAME":"FLOCK 4G-7","OBJECT_ID":"2025-009R","EPOCH":"2026-07-09T04:10:51.636000","CLASSIFICATION_TYPE":"U","MEAN_MOTION":15.29754282,"ECCENTRICITY":0.00019048,"INCLINATION":97.394,"RA_OF_ASC_NODE":271.3713,"ARG_OF_PERICENTER":203.3931,"MEAN_ANOMALY":156.7223,"EPHEMERIS_TYPE":0,"NORAD_CAT_ID":62624,"ELEMENT_SET_NO":999,"REV_AT_EPOCH":8226,"BSTAR":0.00027583672,"MEAN_MOTION_DOT":0.00007875,"MEAN_MOTION_DDOT":0},{"OBJECT_NAME":"FLOCK 4G-12","OBJECT_ID":"2025-009S","EPOCH":"2026-07-09T04:03:34.990272","CLASSIFICATION_TYPE":"U","MEAN_MOTION":15.29689194,"ECCENTRICITY":0.00035455,"INCLINATION":97.4018,"RA_OF_ASC_NODE":271.9106,"ARG_OF_PERICENTER":211.0444,"MEAN_ANOMALY":149.0588,"EPHEMERIS_TYPE":0,"NORAD_CAT_ID":62625,"ELEMENT_SET_NO":999,"REV_AT_EPOCH":8226,"BSTAR":0.00029545286,"MEAN_MOTION_DOT":0.00008425,"MEAN_MOTION_DDOT":0},{"OBJECT_NAME":"FLOCK 4G-11","OBJECT_ID":"2025-009W","EPOCH":"2026-07-09T00:34:01.317504","CLASSIFICATION_TYPE":"U","MEAN_MOTION":15.29794351,"ECCENTRICITY":0.00020016,"INCLINATION":97.3919,"RA_OF_ASC_NODE":271.331,"ARG_OF_PERICENTER":206.9582,"MEAN_ANOMALY":153.1555,"EPHEMERIS_TYPE":0,"NORAD_CAT_ID":62629,"ELEMENT_SET_NO":999,"REV_AT_EPOCH":8225,"BSTAR":0.0002659119,"MEAN_MOTION_DOT":0.00007598,"MEAN_MOTION_DDOT":0},{"OBJECT_NAME":"FLOCK 4G-26","OBJECT_ID":"2025-009AA","EPOCH":"2026-07-09T04:03:00.595296","CLASSIFICATION_TYPE":"U","MEAN_MOTION":15.29981859,"ECCENTRICITY":0.00030417,"INCLINATION":97.4013,"RA_OF_ASC_NODE":272.0687,"ARG_OF_PERICENTER":198.1579,"MEAN_ANOMALY":161.9553,"EPHEMERIS_TYPE":0,"NORAD_CAT_ID":62633,"ELEMENT_SET_NO":999,"REV_AT_EPOCH":8227,"BSTAR":0.00033095174,"MEAN_MOTION_DOT":0.00009533,"MEAN_MOTION_DDOT":0},{"OBJECT_NAME":"FLOCK 4G-28","OBJECT_ID":"2025-009AB","EPOCH":"2026-07-09T00:35:21.407712","CLASSIFICATION_TYPE":"U","MEAN_MOTION":15.35208382,"ECCENTRICITY":0.00015736,"INCLINATION":97.402,"RA_OF_ASC_NODE":274.6606,"ARG_OF_PERICENTER":175.0785,"MEAN_ANOMALY":185.0474,"EPHEMERIS_TYPE":0,"NORAD_CAT_ID":62634,"ELEMENT_SET_NO":999,"REV_AT_EPOCH":8243,"BSTAR":0.00017296429,"MEAN_MOTION_DOT":0.0000583,"MEAN_MOTION_DDOT":0},{"OBJECT_NAME":"FLOCK 4G-20","OBJECT_ID":"2025-009AD","EPOCH":"2026-07-09T05:08:54.770784","CLASSIFICATION_TYPE":"U","MEAN_MOTION":15.59265253,"ECCENTRICITY":0.00059625,"INCLINATION":97.3846,"RA_OF_ASC_NODE":275.3991,"ARG_OF_PERICENTER":218.5585,"MEAN_ANOMALY":141.5247,"EPHEMERIS_TYPE":0,"NORAD_CAT_ID":62636,"ELEMENT_SET_NO":999,"REV_AT_EPOCH":8254,"BSTAR":0.0014618356,"MEAN_MOTION_DOT":0.00116265,"MEAN_MOTION_DDOT":0},{"OBJECT_NAME":"FLOCK 4G-24","OBJECT_ID":"2025-009AE","EPOCH":"2026-07-09T04:20:56.746176","CLASSIFICATION_TYPE":"U","MEAN_MOTION":15.30289198,"ECCENTRICITY":0.00031005,"INCLINATION":97.402,"RA_OF_ASC_NODE":272.3827,"ARG_OF_PERICENTER":183.4224,"MEAN_ANOMALY":176.6996,"EPHEMERIS_TYPE":0,"NORAD_CAT_ID":62637,"ELEMENT_SET_NO":999,"REV_AT_EPOCH":8229,"BSTAR":0.00025254953,"MEAN_MOTION_DOT":0.00007324,"MEAN_MOTION_DDOT":0},{"OBJECT_NAME":"FLOCK 4G-3","OBJECT_ID":"2025-009AG","EPOCH":"2026-07-08T18:43:10.764480","CLASSIFICATION_TYPE":"U","MEAN_MOTION":15.29783248,"ECCENTRICITY":0.00025621,"INCLINATION":97.4022,"RA_OF_ASC_NODE":271.6959,"ARG_OF_PERICENTER":189.3147,"MEAN_ANOMALY":170.8047,"EPHEMERIS_TYPE":0,"NORAD_CAT_ID":62639,"ELEMENT_SET_NO":999,"REV_AT_EPOCH":8220,"BSTAR":0.0002692889,"MEAN_MOTION_DOT":0.00007693,"MEAN_MOTION_DDOT":0},{"OBJECT_NAME":"FLOCK 4G-27","OBJECT_ID":"2025-009AJ","EPOCH":"2026-07-08T19:10:59.590848","CLASSIFICATION_TYPE":"U","MEAN_MOTION":15.29727342,"ECCENTRICITY":0.00019136,"INCLINATION":97.3929,"RA_OF_ASC_NODE":271.0714,"ARG_OF_PERICENTER":188.3351,"MEAN_ANOMALY":171.7858,"EPHEMERIS_TYPE":0,"NORAD_CAT_ID":62641,"ELEMENT_SET_NO":999,"REV_AT_EPOCH":8220,"BSTAR":0.00025278207,"MEAN_MOTION_DOT":0.00007204,"MEAN_MOTION_DDOT":0},{"OBJECT_NAME":"FLOCK 4G-29","OBJECT_ID":"2025-009AK","EPOCH":"2026-07-09T04:15:23.065920","CLASSIFICATION_TYPE":"U","MEAN_MOTION":15.29792433,"ECCENTRICITY":0.00028597,"INCLINATION":97.4018,"RA_OF_ASC_NODE":272.0516,"ARG_OF_PERICENTER":184.5975,"MEAN_ANOMALY":175.524,"EPHEMERIS_TYPE":0,"NORAD_CAT_ID":62642,"ELEMENT_SET_NO":999,"REV_AT_EPOCH":8226,"BSTAR":0.00023142078,"MEAN_MOTION_DOT":0.00006602,"MEAN_MOTION_DDOT":0},{"OBJECT_NAME":"FLOCK 4G-22","OBJECT_ID":"2025-009AN","EPOCH":"2026-07-08T19:16:14.896416","CLASSIFICATION_TYPE":"U","MEAN_MOTION":15.29689068,"ECCENTRICITY":0.00023123,"INCLINATION":97.4003,"RA_OF_ASC_NODE":271.715,"ARG_OF_PERICENTER":179.0266,"MEAN_ANOMALY":181.0979,"EPHEMERIS_TYPE":0,"NORAD_CAT_ID":62645,"ELEMENT_SET_NO":999,"REV_AT_EPOCH":8222,"BSTAR":0.00024243269,"MEAN_MOTION_DOT":0.00006898,"MEAN_MOTION_DDOT":0}]}
